{
  "type": "FeatureCollection",
  "features": [
    {
      "type": "Feature",
      "properties": {
        "norad_id": 43286,
        "name": "IRNSS-1I",
        "group": "gnss",
        "lat": -19.033971404216278,
        "lon": 38.96616972296285,
        "alt_km": 35853.30332752257,
        "timestamp": "2025-12-03T17:47:50.960395+00:00",
        "meta_object_name": "IRNSS-1I",
        "meta_object_id": "2018-035A",
        "meta_epoch": "2025-12-02T20:13:42.640032",
        "meta_mean_motion": 1.00277629,
        "meta_eccentricity": 0.00215449,
        "meta_inclination": 29.1261,
        "meta_ra_of_asc_node": 77.2534,
        "meta_arg_of_pericenter": 181.2965,
        "meta_mean_anomaly": 171.9757,
        "meta_ephemeris_type": 0,
        "meta_classification_type": "U",
        "meta_norad_cat_id": 43286,
        "meta_element_set_no": 999,
        "meta_rev_at_epoch": 2810,
        "meta_bstar": 0,
        "meta_mean_motion_dot": 8.6e-07,
        "meta_mean_motion_ddot": 0,
        "tle_line1": "1 43286U 18035A   25336.84285463  .00000086  00000+0  00000+0 0  9991",
        "tle_line2": "2 43286  29.1261  77.2534 0021544 181.2965 171.9757  1.00277629 28104"
      },
      "geometry": {
        "type": "Point",
        "coordinates": [
          38.96616972296285,
          -19.033971404216278
        ]
      }
    },
    {
      "type": "Feature",
      "properties": {
        "norad_id": 43508,
        "name": "COSMOS 2527 (756)",
        "group": "gnss",
        "lat": -63.63376608575417,
        "lon": -32.649474045200755,
        "alt_km": 19118.603927922886,
        "timestamp": "2025-12-03T17:47:50.960409+00:00",
        "meta_object_name": "COSMOS 2527 (756)",
        "meta_object_id": "2018-053A",
        "meta_epoch": "2025-12-03T09:39:54.898272",
        "meta_mean_motion": 2.13102029,
        "meta_eccentricity": 0.0008648,
        "meta_inclination": 65.4675,
        "meta_ra_of_asc_node": 80.4438,
        "meta_arg_of_pericenter": 224.1252,
        "meta_mean_anomaly": 135.8021,
        "meta_ephemeris_type": 0,
        "meta_classification_type": "U",
        "meta_norad_cat_id": 43508,
        "meta_element_set_no": 999,
        "meta_rev_at_epoch": 5810,
        "meta_bstar": 0,
        "meta_mean_motion_dot": -2.2e-07,
        "meta_mean_motion_ddot": 0,
        "tle_line1": "1 43508U 18053A   25337.40271873 -.00000022  00000+0  00000+0 0  9992",
        "tle_line2": "2 43508  65.4675  80.4438 0008648 224.1252 135.8021  2.13102029 58100"
      },
      "geometry": {
        "type": "Point",
        "coordinates": [
          -32.649474045200755,
          -63.63376608575417
        ]
      }
    },
    {
      "type": "Feature",
      "properties": {
        "norad_id": 43539,
        "name": "BEIDOU-2 IGSO-7 (C16)",
        "group": "gnss",
        "lat": -51.58316858730202,
        "lon": 103.18917440365779,
        "alt_km": 35552.98320533594,
        "timestamp": "2025-12-03T17:47:50.960421+00:00",
        "meta_object_name": "BEIDOU-2 IGSO-7 (C16)",
        "meta_object_id": "2018-057A",
        "meta_epoch": "2025-12-03T10:51:14.895936",
        "meta_mean_motion": 1.00259551,
        "meta_eccentricity": 0.009247,
        "meta_inclination": 55.1728,
        "meta_ra_of_asc_node": 164.7534,
        "meta_arg_of_pericenter": 235.1642,
        "meta_mean_anomaly": 306.8485,
        "meta_ephemeris_type": 0,
        "meta_classification_type": "U",
        "meta_norad_cat_id": 43539,
        "meta_element_set_no": 999,
        "meta_rev_at_epoch": 2716,
        "meta_bstar": 0,
        "meta_mean_motion_dot": -2.5e-07,
        "meta_mean_motion_ddot": 0,
        "tle_line1": "1 43539U 18057A   25337.45225574 -.00000025  00000+0  00000+0 0  9995",
        "tle_line2": "2 43539  55.1728 164.7534 0092470 235.1642 306.8485  1.00259551 27167"
      },
      "geometry": {
        "type": "Point",
        "coordinates": [
          103.18917440365779,
          -51.58316858730202
        ]
      }
    },
    {
      "type": "Feature",
      "properties": {
        "norad_id": 43564,
        "name": "GSAT0221 (GALILEO 25)",
        "group": "gnss",
        "lat": 4.923445452861479,
        "lon": -9.751073647744642,
        "alt_km": 23220.334427607326,
        "timestamp": "2025-12-03T17:47:50.960433+00:00",
        "meta_object_name": "GSAT0221 (GALILEO 25)",
        "meta_object_id": "2018-060A",
        "meta_epoch": "2025-12-01T09:15:23.303232",
        "meta_mean_motion": 1.70475711,
        "meta_eccentricity": 0.00066191,
        "meta_inclination": 57.2301,
        "meta_ra_of_asc_node": 347.1247,
        "meta_arg_of_pericenter": 279.777,
        "meta_mean_anomaly": 80.1905,
        "meta_ephemeris_type": 0,
        "meta_classification_type": "U",
        "meta_norad_cat_id": 43564,
        "meta_element_set_no": 999,
        "meta_rev_at_epoch": 4579,
        "meta_bstar": 0,
        "meta_mean_motion_dot": -5.9e-07,
        "meta_mean_motion_ddot": 0,
        "tle_line1": "1 43564U 18060A   25335.38568638 -.00000059  00000+0  00000+0 0  9995",
        "tle_line2": "2 43564  57.2301 347.1247 0006619 279.7770  80.1905  1.70475711 45792"
      },
      "geometry": {
        "type": "Point",
        "coordinates": [
          -9.751073647744642,
          4.923445452861479
        ]
      }
    },
    {
      "type": "Feature",
      "properties": {
        "norad_id": 43565,
        "name": "GSAT0222 (GALILEO 26)",
        "group": "gnss",
        "lat": -40.92579841344157,
        "lon": -158.97666107717703,
        "alt_km": 23210.912023853227,
        "timestamp": "2025-12-03T17:47:50.960444+00:00",
        "meta_object_name": "GSAT0222 (GALILEO 26)",
        "meta_object_id": "2018-060B",
        "meta_epoch": "2025-12-02T18:40:34.091904",
        "meta_mean_motion": 1.70475403,
        "meta_eccentricity": 0.0006181,
        "meta_inclination": 57.2338,
        "meta_ra_of_asc_node": 347.09,
        "meta_arg_of_pericenter": 260.4743,
        "meta_mean_anomaly": 99.4943,
        "meta_ephemeris_type": 0,
        "meta_classification_type": "U",
        "meta_norad_cat_id": 43565,
        "meta_element_set_no": 999,
        "meta_rev_at_epoch": 4586,
        "meta_bstar": 0,
        "meta_mean_motion_dot": -6.4e-07,
        "meta_mean_motion_ddot": 0,
        "tle_line1": "1 43565U 18060B   25336.77817236 -.00000064  00000+0  00000+0 0  9997",
        "tle_line2": "2 43565  57.2338 347.0900 0006181 260.4743  99.4943  1.70475403 45860"
      },
      "geometry": {
        "type": "Point",
        "coordinates": [
          -158.97666107717703,
          -40.92579841344157
        ]
      }
    },
    {
      "type": "Feature",
      "properties": {
        "norad_id": 43566,
        "name": "GSAT0219 (GALILEO 23)",
        "group": "gnss",
        "lat": 56.80273389374721,
        "lon": 87.15537310808497,
        "alt_km": 23232.386589767753,
        "timestamp": "2025-12-03T17:47:50.960456+00:00",
        "meta_object_name": "GSAT0219 (GALILEO 23)",
        "meta_object_id": "2018-060C",
        "meta_epoch": "2025-11-30T01:35:38.037408",
        "meta_mean_motion": 1.70475682,
        "meta_eccentricity": 0.00057799,
        "meta_inclination": 57.2334,
        "meta_ra_of_asc_node": 347.165,
        "meta_arg_of_pericenter": 285.7575,
        "meta_mean_anomaly": 74.2225,
        "meta_ephemeris_type": 0,
        "meta_classification_type": "U",
        "meta_norad_cat_id": 43566,
        "meta_element_set_no": 999,
        "meta_rev_at_epoch": 4579,
        "meta_bstar": 0,
        "meta_mean_motion_dot": -5.6e-07,
        "meta_mean_motion_ddot": 0,
        "tle_line1": "1 43566U 18060C   25334.06641247 -.00000056  00000+0  00000+0 0  9996",
        "tle_line2": "2 43566  57.2334 347.1650 0005779 285.7575  74.2225  1.70475682 45790"
      },
      "geometry": {
        "type": "Point",
        "coordinates": [
          87.15537310808497,
          56.80273389374721
        ]
      }
    },
    {
      "type": "Feature",
      "properties": {
        "norad_id": 43567,
        "name": "GSAT0220 (GALILEO 24)",
        "group": "gnss",
        "lat": -32.76608632727901,
        "lon": -37.42317469479193,
        "alt_km": 23212.164423029975,
        "timestamp": "2025-12-03T17:47:50.960469+00:00",
        "meta_object_name": "GSAT0220 (GALILEO 24)",
        "meta_object_id": "2018-060D",
        "meta_epoch": "2025-12-01T11:03:06.852672",
        "meta_mean_motion": 1.70475407,
        "meta_eccentricity": 0.00061058,
        "meta_inclination": 57.2328,
        "meta_ra_of_asc_node": 347.128,
        "meta_arg_of_pericenter": 280.6549,
        "meta_mean_anomaly": 79.3184,
        "meta_ephemeris_type": 0,
        "meta_classification_type": "U",
        "meta_norad_cat_id": 43567,
        "meta_element_set_no": 999,
        "meta_rev_at_epoch": 4580,
        "meta_bstar": 0,
        "meta_mean_motion_dot": -5.9e-07,
        "meta_mean_motion_ddot": 0,
        "tle_line1": "1 43567U 18060D   25335.46049598 -.00000059  00000+0  00000+0 0  9996",
        "tle_line2": "2 43567  57.2328 347.1280 0006105 280.6549  79.3184  1.70475407 45809"
      },
      "geometry": {
        "type": "Point",
        "coordinates": [
          -37.42317469479193,
          -32.76608632727901
        ]
      }
    }
  ]
}